KUIPER-00071            
1 64818U 25151C   25322.50175638 -.00006531  00000+0 -82760-3 0  9992
2 64818  51.9007  74.7445 0007434 212.7861 147.2641 14.79945513 18807
KUIPER-00072            
1 64819U 25151D   25322.45470191  .00003850  00000+0  45810-3 0  9993
2 64819  51.9008  54.5960 0002052 221.7636 138.3173 14.86396829 19088
KUIPER-00073            
1 64820U 25151E   25321.72351304  .00005376  00000+0  72931-3 0  9997
2 64820  51.8994  78.1652 0013013 238.9003 121.0683 14.80150027 19874
KUIPER-00074            
1 64821U 25151F   25322.48149712  .00006239  00000+0  84578-3 0  9999
2 64821  51.9040  62.3459 0012409 260.1639  99.7923 14.79943718 18971
KUIPER-00075            
1 64822U 25151G   25322.43806094  .00056589  00000+0  13911-2 0  9993
2 64822  51.8770  42.0981 0003745 227.9533 132.1137 15.40088695 19257
KUIPER-00076            
1 64823U 25151H   25322.47885059 -.00000397  00000+0 -22897-4 0  9999
2 64823  51.9007  64.8520 0004416 252.8586 107.1893 14.79948726 18941
KUIPER-00077            
1 64824U 25151J   25322.47349071  .00004928  00000+0  67468-3 0  9993
2 64824  51.9024  69.8796 0006370 203.1690 156.8985 14.79947534 18878
KUIPER-00078            
1 64825U 25151K   25322.44237301  .00005811  00000+0  79028-3 0  9990
2 64825  51.9029  67.5140 0006976 275.4686  84.5481 14.79946742 18903
